[{"OBJECT_NAME":"NIMIQ 2","OBJECT_ID":"2002-062A","EPOCH":"2026-04-25T21:38:32.593632","MEAN_MOTION":1.0027232,"ECCENTRICITY":0.000632,"INCLINATION":9.3288,"RA_OF_ASC_NODE":57.4432,"ARG_OF_PERICENTER":333.7121,"MEAN_ANOMALY":38.2272,"EPHEMERIS_TYPE":0,"CLASSIFICATION_TYPE":"U","NORAD_CAT_ID":27632,"ELEMENT_SET_NO":999,"REV_AT_EPOCH":4366,"BSTAR":0,"MEAN_MOTION_DOT":-7.8e-7,"MEAN_MOTION_DDOT":0},{"OBJECT_NAME":"ANIK F2","OBJECT_ID":"2004-027A","EPOCH":"2026-04-25T21:38:17.617920","MEAN_MOTION":1.00271375,"ECCENTRICITY":0.00043029,"INCLINATION":3.1531,"RA_OF_ASC_NODE":80.1202,"ARG_OF_PERICENTER":332.0889,"MEAN_ANOMALY":15.1434,"EPHEMERIS_TYPE":0,"CLASSIFICATION_TYPE":"U","NORAD_CAT_ID":28378,"ELEMENT_SET_NO":999,"REV_AT_EPOCH":4073,"BSTAR":0,"MEAN_MOTION_DOT":-6.0e-7,"MEAN_MOTION_DDOT":0},{"OBJECT_NAME":"ANIK F1R","OBJECT_ID":"2005-036A","EPOCH":"2026-04-25T21:39:25.009920","MEAN_MOTION":1.00272055,"ECCENTRICITY":0.00033813,"INCLINATION":4.1812,"RA_OF_ASC_NODE":77.2084,"ARG_OF_PERICENTER":330.1665,"MEAN_ANOMALY":24.1112,"EPHEMERIS_TYPE":0,"CLASSIFICATION_TYPE":"U","NORAD_CAT_ID":28868,"ELEMENT_SET_NO":999,"REV_AT_EPOCH":4592,"BSTAR":0,"MEAN_MOTION_DOT":-8.5e-7,"MEAN_MOTION_DDOT":0},{"OBJECT_NAME":"ANIK F3","OBJECT_ID":"2007-009A","EPOCH":"2026-04-25T21:36:10.321344","MEAN_MOTION":1.00272059,"ECCENTRICITY":0.00027008,"INCLINATION":1.0639,"RA_OF_ASC_NODE":84.4008,"ARG_OF_PERICENTER":307.4191,"MEAN_ANOMALY":27.4187,"EPHEMERIS_TYPE":0,"CLASSIFICATION_TYPE":"U","NORAD_CAT_ID":31102,"ELEMENT_SET_NO":999,"REV_AT_EPOCH":4603,"BSTAR":0,"MEAN_MOTION_DOT":-1.4e-7,"MEAN_MOTION_DDOT":0},{"OBJECT_NAME":"NIMIQ 4","OBJECT_ID":"2008-044A","EPOCH":"2026-04-25T20:49:38.771040","MEAN_MOTION":1.0027156,"ECCENTRICITY":0.00022262,"INCLINATION":0.0073,"RA_OF_ASC_NODE":279.9811,"ARG_OF_PERICENTER":109.7942,"MEAN_ANOMALY":54.5337,"EPHEMERIS_TYPE":0,"CLASSIFICATION_TYPE":"U","NORAD_CAT_ID":33373,"ELEMENT_SET_NO":999,"REV_AT_EPOCH":6445,"BSTAR":0,"MEAN_MOTION_DOT":-2.34e-6,"MEAN_MOTION_DDOT":0},{"OBJECT_NAME":"TELSTAR 11N","OBJECT_ID":"2009-009A","EPOCH":"2026-04-25T21:59:15.606240","MEAN_MOTION":1.00267441,"ECCENTRICITY":0.0002559,"INCLINATION":0.0133,"RA_OF_ASC_NODE":230.5627,"ARG_OF_PERICENTER":152.2382,"MEAN_ANOMALY":123.3873,"EPHEMERIS_TYPE":0,"CLASSIFICATION_TYPE":"U","NORAD_CAT_ID":34111,"ELEMENT_SET_NO":999,"REV_AT_EPOCH":4572,"BSTAR":0,"MEAN_MOTION_DOT":0,"MEAN_MOTION_DDOT":0},{"OBJECT_NAME":"TERRESTAR-1","OBJECT_ID":"2009-035A","EPOCH":"2026-04-25T14:29:23.510112","MEAN_MOTION":1.00272151,"ECCENTRICITY":0.00029571,"INCLINATION":5.1491,"RA_OF_ASC_NODE":48.807,"ARG_OF_PERICENTER":347.0409,"MEAN_ANOMALY":284.1124,"EPHEMERIS_TYPE":0,"CLASSIFICATION_TYPE":"U","NORAD_CAT_ID":35496,"ELEMENT_SET_NO":999,"REV_AT_EPOCH":6160,"BSTAR":0,"MEAN_MOTION_DOT":-6.7e-7,"MEAN_MOTION_DDOT":0},{"OBJECT_NAME":"NIMIQ 5","OBJECT_ID":"2009-050A","EPOCH":"2026-04-25T20:49:38.771040","MEAN_MOTION":1.00268867,"ECCENTRICITY":0.00030107,"INCLINATION":0.0218,"RA_OF_ASC_NODE":108.1624,"ARG_OF_PERICENTER":295.8677,"MEAN_ANOMALY":49.5663,"EPHEMERIS_TYPE":0,"CLASSIFICATION_TYPE":"U","NORAD_CAT_ID":35873,"ELEMENT_SET_NO":999,"REV_AT_EPOCH":6082,"BSTAR":0,"MEAN_MOTION_DOT":0,"MEAN_MOTION_DDOT":0},{"OBJECT_NAME":"SKYTERRA 1","OBJECT_ID":"2010-061A","EPOCH":"2026-04-25T21:41:02.354208","MEAN_MOTION":1.00271521,"ECCENTRICITY":0.0003068,"INCLINATION":5.017,"RA_OF_ASC_NODE":50.8823,"ARG_OF_PERICENTER":23.9028,"MEAN_ANOMALY":3.0522,"EPHEMERIS_TYPE":0,"CLASSIFICATION_TYPE":"U","NORAD_CAT_ID":37218,"ELEMENT_SET_NO":999,"REV_AT_EPOCH":5667,"BSTAR":0,"MEAN_MOTION_DOT":-1.28e-6,"MEAN_MOTION_DDOT":0},{"OBJECT_NAME":"TELSTAR 14R","OBJECT_ID":"2011-021A","EPOCH":"2026-04-25T21:52:01.301088","MEAN_MOTION":1.00271756,"ECCENTRICITY":0.00022598,"INCLINATION":0.0185,"RA_OF_ASC_NODE":258.8051,"ARG_OF_PERICENTER":129.8537,"MEAN_ANOMALY":90.252,"EPHEMERIS_TYPE":0,"CLASSIFICATION_TYPE":"U","NORAD_CAT_ID":37602,"ELEMENT_SET_NO":999,"REV_AT_EPOCH":5531,"BSTAR":0,"MEAN_MOTION_DOT":-2.93e-6,"MEAN_MOTION_DDOT":0},{"OBJECT_NAME":"NIMIQ 6","OBJECT_ID":"2012-026A","EPOCH":"2026-04-25T20:57:38.714400","MEAN_MOTION":1.00271827,"ECCENTRICITY":0.00025221,"INCLINATION":0.0622,"RA_OF_ASC_NODE":75.8877,"ARG_OF_PERICENTER":313.0103,"MEAN_ANOMALY":48.2946,"EPHEMERIS_TYPE":0,"CLASSIFICATION_TYPE":"U","NORAD_CAT_ID":38342,"ELEMENT_SET_NO":999,"REV_AT_EPOCH":4988,"BSTAR":0,"MEAN_MOTION_DOT":-1.87e-6,"MEAN_MOTION_DDOT":0},{"OBJECT_NAME":"ANIK G1","OBJECT_ID":"2013-014A","EPOCH":"2026-04-25T21:39:25.009920","MEAN_MOTION":1.00269303,"ECCENTRICITY":0.00021897,"INCLINATION":0.0232,"RA_OF_ASC_NODE":107.2533,"ARG_OF_PERICENTER":268.6937,"MEAN_ANOMALY":55.5217,"EPHEMERIS_TYPE":0,"CLASSIFICATION_TYPE":"U","NORAD_CAT_ID":39127,"ELEMENT_SET_NO":999,"REV_AT_EPOCH":4772,"BSTAR":0,"MEAN_MOTION_DOT":0,"MEAN_MOTION_DDOT":0},{"OBJECT_NAME":"TELSTAR 12V","OBJECT_ID":"2015-068A","EPOCH":"2026-04-25T22:05:44.984256","MEAN_MOTION":1.00271627,"ECCENTRICITY":0.00024524,"INCLINATION":0.007,"RA_OF_ASC_NODE":211.9089,"ARG_OF_PERICENTER":177.3915,"MEAN_ANOMALY":141.0687,"EPHEMERIS_TYPE":0,"CLASSIFICATION_TYPE":"U","NORAD_CAT_ID":41036,"ELEMENT_SET_NO":999,"REV_AT_EPOCH":3810,"BSTAR":0,"MEAN_MOTION_DOT":-1.32e-6,"MEAN_MOTION_DDOT":0},{"OBJECT_NAME":"VIASAT-2","OBJECT_ID":"2017-029A","EPOCH":"2026-04-25T21:50:01.491936","MEAN_MOTION":1.00271492,"ECCENTRICITY":2.819e-5,"INCLINATION":0.0161,"RA_OF_ASC_NODE":267.5438,"ARG_OF_PERICENTER":95.1612,"MEAN_ANOMALY":108.8238,"EPHEMERIS_TYPE":0,"CLASSIFICATION_TYPE":"U","NORAD_CAT_ID":42740,"ELEMENT_SET_NO":999,"REV_AT_EPOCH":3268,"BSTAR":0,"MEAN_MOTION_DOT":-2.79e-6,"MEAN_MOTION_DDOT":0},{"OBJECT_NAME":"LEO 1 (LEO VANTAGE 1)","OBJECT_ID":"2018-004C","EPOCH":"2026-04-25T18:06:09.285696","MEAN_MOTION":14.67560438,"ECCENTRICITY":0.0350178,"INCLINATION":99.245,"RA_OF_ASC_NODE":27.2062,"ARG_OF_PERICENTER":240.3062,"MEAN_ANOMALY":116.2858,"EPHEMERIS_TYPE":0,"CLASSIFICATION_TYPE":"U","NORAD_CAT_ID":43113,"ELEMENT_SET_NO":999,"REV_AT_EPOCH":42979,"BSTAR":0.00012187155,"MEAN_MOTION_DOT":1.669e-5,"MEAN_MOTION_DDOT":0},{"OBJECT_NAME":"TELSTAR 19V","OBJECT_ID":"2018-059A","EPOCH":"2026-04-25T21:52:01.301088","MEAN_MOTION":1.00270877,"ECCENTRICITY":0.00016075,"INCLINATION":0.019,"RA_OF_ASC_NODE":192.6144,"ARG_OF_PERICENTER":252.3679,"MEAN_ANOMALY":33.9385,"EPHEMERIS_TYPE":0,"CLASSIFICATION_TYPE":"U","NORAD_CAT_ID":43562,"ELEMENT_SET_NO":999,"REV_AT_EPOCH":2862,"BSTAR":0,"MEAN_MOTION_DOT":-2.93e-6,"MEAN_MOTION_DDOT":0},{"OBJECT_NAME":"TELSTAR 18V","OBJECT_ID":"2018-069A","EPOCH":"2026-04-25T22:49:18.306912","MEAN_MOTION":1.00271456,"ECCENTRICITY":0.00020011,"INCLINATION":0.0136,"RA_OF_ASC_NODE":265.8313,"ARG_OF_PERICENTER":117.237,"MEAN_ANOMALY":311.218,"EPHEMERIS_TYPE":0,"CLASSIFICATION_TYPE":"U","NORAD_CAT_ID":43611,"ELEMENT_SET_NO":999,"REV_AT_EPOCH":2811,"BSTAR":0,"MEAN_MOTION_DOT":-3.07e-6,"MEAN_MOTION_DDOT":0}]
